TEVEL2-1                
1 63217U 25052H   26068.64782323  .00020683  00000+0  70600-3 0  9994
2 63217  97.3991 324.7682 0004767 104.8919 255.2849 15.30341923 54855
STARLINK-33942          
1 63974U 25099Y   26068.29327960  .00029327  00000+0  10712-2 0  9999
2 63974  42.9980 175.1620 0001354 257.2430 102.8270 15.27573374 47310
